STARLINK-4711           
1 53701U 22107B   26068.71601789 -.00000709  00000+0 -26453-4 0  9990
2 53701  53.2163 243.5898 0001194  93.4654 266.6474 15.08835561194868
KUIPER-00148            
1 65769U 25217H   26068.27522507  .00015783  00000+0  98730-3 0  9995
2 65769  51.8794  26.5769 0008108 351.8096   8.2745 15.09536529 25078
