[{"OBJECT_NAME":"STARLINK-4711","OBJECT_ID":"2022-107B","EPOCH":"2026-03-09T17:11:03.946560","MEAN_MOTION":15.08835561,"ECCENTRICITY":0.00011939,"INCLINATION":53.2163,"RA_OF_ASC_NODE":243.5898,"ARG_OF_PERICENTER":93.4654,"MEAN_ANOMALY":266.6474,"EPHEMERIS_TYPE":0,"CLASSIFICATION_TYPE":"U","NORAD_CAT_ID":53701,"ELEMENT_SET_NO":999,"REV_AT_EPOCH":19486,"BSTAR":-2.6453034e-5,"MEAN_MOTION_DOT":-7.09e-6,"MEAN_MOTION_DDOT":0},{"OBJECT_NAME":"KUIPER-00148","OBJECT_ID":"2025-217H","EPOCH":"2026-03-09T06:36:19.446048","MEAN_MOTION":15.09536529,"ECCENTRICITY":0.00081087,"INCLINATION":51.8794,"RA_OF_ASC_NODE":26.5769,"ARG_OF_PERICENTER":351.8096,"MEAN_ANOMALY":8.2745,"EPHEMERIS_TYPE":0,"CLASSIFICATION_TYPE":"U","NORAD_CAT_ID":65769,"ELEMENT_SET_NO":999,"REV_AT_EPOCH":2507,"BSTAR":0.00098730243,"MEAN_MOTION_DOT":0.00015783,"MEAN_MOTION_DDOT":0}]
